[{"OBJECT_NAME":"ONEWEB-0358","OBJECT_ID":"2021-090F","EPOCH":"2025-11-08T01:06:44.915616","MEAN_MOTION":13.20771694,"ECCENTRICITY":0.0001685,"INCLINATION":87.9187,"RA_OF_ASC_NODE":318.5363,"ARG_OF_PERICENTER":86.339,"MEAN_ANOMALY":273.7936,"EPHEMERIS_TYPE":0,"CLASSIFICATION_TYPE":"U","NORAD_CAT_ID":49284,"ELEMENT_SET_NO":999,"REV_AT_EPOCH":20136,"BSTAR":-3.2866e-5,"MEAN_MOTION_DOT":0,"MEAN_MOTION_DDOT":0},{"OBJECT_NAME":"ONEWEB-0359","OBJECT_ID":"2021-090G","EPOCH":"2025-11-08T01:02:14.246880","MEAN_MOTION":13.20749383,"ECCENTRICITY":0.0002396,"INCLINATION":87.9185,"RA_OF_ASC_NODE":318.5409,"ARG_OF_PERICENTER":98.4912,"MEAN_ANOMALY":261.6493,"EPHEMERIS_TYPE":0,"CLASSIFICATION_TYPE":"U","NORAD_CAT_ID":49285,"ELEMENT_SET_NO":999,"REV_AT_EPOCH":20134,"BSTAR":-0.013013,"MEAN_MOTION_DOT":-5.273e-5,"MEAN_MOTION_DDOT":0},{"OBJECT_NAME":"ONEWEB-0360","OBJECT_ID":"2021-090H","EPOCH":"2025-11-08T00:48:33.751008","MEAN_MOTION":13.20770076,"ECCENTRICITY":0.0001907,"INCLINATION":87.9184,"RA_OF_ASC_NODE":318.5514,"ARG_OF_PERICENTER":87.7277,"MEAN_ANOMALY":272.4074,"EPHEMERIS_TYPE":0,"CLASSIFICATION_TYPE":"U","NORAD_CAT_ID":49286,"ELEMENT_SET_NO":999,"REV_AT_EPOCH":20065,"BSTAR":0.00045755,"MEAN_MOTION_DOT":1.99e-6,"MEAN_MOTION_DDOT":0},{"OBJECT_NAME":"ONEWEB-0361","OBJECT_ID":"2021-090J","EPOCH":"2025-11-08T02:10:22.190304","MEAN_MOTION":13.20769855,"ECCENTRICITY":0.0001705,"INCLINATION":87.9186,"RA_OF_ASC_NODE":318.5354,"ARG_OF_PERICENTER":94.106,"MEAN_ANOMALY":266.0268,"EPHEMERIS_TYPE":0,"CLASSIFICATION_TYPE":"U","NORAD_CAT_ID":49287,"ELEMENT_SET_NO":999,"REV_AT_EPOCH":20111,"BSTAR":1.1977e-5,"MEAN_MOTION_DOT":1.8e-7,"MEAN_MOTION_DDOT":0},{"OBJECT_NAME":"ONEWEB-0362","OBJECT_ID":"2021-090K","EPOCH":"2025-11-08T02:17:27.924576","MEAN_MOTION":13.19727094,"ECCENTRICITY":0.0002123,"INCLINATION":87.9221,"RA_OF_ASC_NODE":348.9793,"ARG_OF_PERICENTER":95.5308,"MEAN_ANOMALY":264.6067,"EPHEMERIS_TYPE":0,"CLASSIFICATION_TYPE":"U","NORAD_CAT_ID":49288,"ELEMENT_SET_NO":999,"REV_AT_EPOCH":19775,"BSTAR":0.00023585,"MEAN_MOTION_DOT":1.07e-6,"MEAN_MOTION_DDOT":0},{"OBJECT_NAME":"ONEWEB-0363","OBJECT_ID":"2021-090L","EPOCH":"2025-11-08T00:43:59.526048","MEAN_MOTION":13.20772345,"ECCENTRICITY":0.0001513,"INCLINATION":87.9188,"RA_OF_ASC_NODE":318.5441,"ARG_OF_PERICENTER":94.9071,"MEAN_ANOMALY":265.2235,"EPHEMERIS_TYPE":0,"CLASSIFICATION_TYPE":"U","NORAD_CAT_ID":49289,"ELEMENT_SET_NO":999,"REV_AT_EPOCH":20111,"BSTAR":0.00017749,"MEAN_MOTION_DOT":8.5e-7,"MEAN_MOTION_DDOT":0},{"OBJECT_NAME":"ONEWEB-0364","OBJECT_ID":"2021-090M","EPOCH":"2025-11-08T01:38:34.135296","MEAN_MOTION":13.20773115,"ECCENTRICITY":0.0001692,"INCLINATION":87.9179,"RA_OF_ASC_NODE":318.5621,"ARG_OF_PERICENTER":93.2777,"MEAN_ANOMALY":266.855,"EPHEMERIS_TYPE":0,"CLASSIFICATION_TYPE":"U","NORAD_CAT_ID":49290,"ELEMENT_SET_NO":999,"REV_AT_EPOCH":20225,"BSTAR":-0.00010275,"MEAN_MOTION_DOT":-2.9e-7,"MEAN_MOTION_DDOT":0},{"OBJECT_NAME":"ONEWEB-0365","OBJECT_ID":"2021-090N","EPOCH":"2025-11-08T02:31:06.771072","MEAN_MOTION":13.19726751,"ECCENTRICITY":0.0001959,"INCLINATION":87.9238,"RA_OF_ASC_NODE":348.9379,"ARG_OF_PERICENTER":97.6493,"MEAN_ANOMALY":262.4862,"EPHEMERIS_TYPE":0,"CLASSIFICATION_TYPE":"U","NORAD_CAT_ID":49291,"ELEMENT_SET_NO":999,"REV_AT_EPOCH":19726,"BSTAR":8.3163e-5,"MEAN_MOTION_DOT":4.6e-7,"MEAN_MOTION_DDOT":0},{"OBJECT_NAME":"ONEWEB-0366","OBJECT_ID":"2021-090P","EPOCH":"2025-11-08T02:02:55.612032","MEAN_MOTION":13.14504237,"ECCENTRICITY":0.0001789,"INCLINATION":87.8995,"RA_OF_ASC_NODE":333.7709,"ARG_OF_PERICENTER":93.4564,"MEAN_ANOMALY":266.677,"EPHEMERIS_TYPE":0,"CLASSIFICATION_TYPE":"U","NORAD_CAT_ID":49292,"ELEMENT_SET_NO":999,"REV_AT_EPOCH":19851,"BSTAR":-0.00024796,"MEAN_MOTION_DOT":-7.9e-7,"MEAN_MOTION_DDOT":0},{"OBJECT_NAME":"ONEWEB-0367","OBJECT_ID":"2021-090Q","EPOCH":"2025-11-08T00:41:44.615040","MEAN_MOTION":13.20773321,"ECCENTRICITY":0.0002083,"INCLINATION":87.9194,"RA_OF_ASC_NODE":318.5424,"ARG_OF_PERICENTER":91.1116,"MEAN_ANOMALY":269.0256,"EPHEMERIS_TYPE":0,"CLASSIFICATION_TYPE":"U","NORAD_CAT_ID":49293,"ELEMENT_SET_NO":999,"REV_AT_EPOCH":20063,"BSTAR":-5.8125e-5,"MEAN_MOTION_DOT":-1.1e-7,"MEAN_MOTION_DDOT":0},{"OBJECT_NAME":"ONEWEB-0368","OBJECT_ID":"2021-090R","EPOCH":"2025-11-08T01:52:11.938944","MEAN_MOTION":13.20772457,"ECCENTRICITY":0.000181,"INCLINATION":87.918,"RA_OF_ASC_NODE":318.5658,"ARG_OF_PERICENTER":115.9652,"MEAN_ANOMALY":244.1667,"EPHEMERIS_TYPE":0,"CLASSIFICATION_TYPE":"U","NORAD_CAT_ID":49294,"ELEMENT_SET_NO":999,"REV_AT_EPOCH":20179,"BSTAR":9.0574e-5,"MEAN_MOTION_DOT":5.0e-7,"MEAN_MOTION_DDOT":0},{"OBJECT_NAME":"ONEWEB-0369","OBJECT_ID":"2021-090S","EPOCH":"2025-11-08T02:24:17.526240","MEAN_MOTION":13.19726652,"ECCENTRICITY":0.0002162,"INCLINATION":87.9226,"RA_OF_ASC_NODE":348.9678,"ARG_OF_PERICENTER":102.1724,"MEAN_ANOMALY":257.9651,"EPHEMERIS_TYPE":0,"CLASSIFICATION_TYPE":"U","NORAD_CAT_ID":49295,"ELEMENT_SET_NO":999,"REV_AT_EPOCH":19725,"BSTAR":0.0001169,"MEAN_MOTION_DOT":6.0e-7,"MEAN_MOTION_DDOT":0},{"OBJECT_NAME":"ONEWEB-0370","OBJECT_ID":"2021-090T","EPOCH":"2025-11-08T00:55:22.917216","MEAN_MOTION":13.20773001,"ECCENTRICITY":0.0002031,"INCLINATION":87.9186,"RA_OF_ASC_NODE":318.5474,"ARG_OF_PERICENTER":82.3744,"MEAN_ANOMALY":277.762,"EPHEMERIS_TYPE":0,"CLASSIFICATION_TYPE":"U","NORAD_CAT_ID":49296,"ELEMENT_SET_NO":999,"REV_AT_EPOCH":20067,"BSTAR":0.00018579,"MEAN_MOTION_DOT":8.9e-7,"MEAN_MOTION_DDOT":0},{"OBJECT_NAME":"ONEWEB-0371","OBJECT_ID":"2021-090U","EPOCH":"2025-11-08T04:24:50.708736","MEAN_MOTION":13.19726599,"ECCENTRICITY":0.0001981,"INCLINATION":87.923,"RA_OF_ASC_NODE":348.9396,"ARG_OF_PERICENTER":95.8952,"MEAN_ANOMALY":264.2406,"EPHEMERIS_TYPE":0,"CLASSIFICATION_TYPE":"U","NORAD_CAT_ID":49297,"ELEMENT_SET_NO":999,"REV_AT_EPOCH":19730,"BSTAR":3.2051e-5,"MEAN_MOTION_DOT":2.6e-7,"MEAN_MOTION_DDOT":0},{"OBJECT_NAME":"ONEWEB-0372","OBJECT_ID":"2021-090V","EPOCH":"2025-11-08T02:28:22.291392","MEAN_MOTION":13.20771811,"ECCENTRICITY":0.0001938,"INCLINATION":87.9182,"RA_OF_ASC_NODE":318.5359,"ARG_OF_PERICENTER":93.9713,"MEAN_ANOMALY":266.1642,"EPHEMERIS_TYPE":0,"CLASSIFICATION_TYPE":"U","NORAD_CAT_ID":49298,"ELEMENT_SET_NO":999,"REV_AT_EPOCH":20065,"BSTAR":-3.6618e-5,"MEAN_MOTION_DOT":-2.0e-8,"MEAN_MOTION_DDOT":0},{"OBJECT_NAME":"ONEWEB-0373","OBJECT_ID":"2021-090W","EPOCH":"2025-11-08T01:18:06.806016","MEAN_MOTION":13.20771196,"ECCENTRICITY":0.0001771,"INCLINATION":87.9181,"RA_OF_ASC_NODE":318.5589,"ARG_OF_PERICENTER":89.0298,"MEAN_ANOMALY":271.1038,"EPHEMERIS_TYPE":0,"CLASSIFICATION_TYPE":"U","NORAD_CAT_ID":49299,"ELEMENT_SET_NO":999,"REV_AT_EPOCH":20183,"BSTAR":0.00012707,"MEAN_MOTION_DOT":6.5e-7,"MEAN_MOTION_DDOT":0},{"OBJECT_NAME":"ONEWEB-0374","OBJECT_ID":"2021-090X","EPOCH":"2025-11-08T01:44:39.957216","MEAN_MOTION":13.14501962,"ECCENTRICITY":0.0001422,"INCLINATION":87.9001,"RA_OF_ASC_NODE":333.7494,"ARG_OF_PERICENTER":107.4248,"MEAN_ANOMALY":252.7037,"EPHEMERIS_TYPE":0,"CLASSIFICATION_TYPE":"U","NORAD_CAT_ID":49300,"ELEMENT_SET_NO":999,"REV_AT_EPOCH":19851,"BSTAR":0.00026473,"MEAN_MOTION_DOT":1.11e-6,"MEAN_MOTION_DDOT":0}]
