ONEWEB-0358             
1 49284U 21090F   25312.04635319  .00000000  00000+0 -32866-4 0  9992
2 49284  87.9187 318.5363 0001685  86.3390 273.7936 13.20771694201366
ONEWEB-0359             
1 49285U 21090G   25312.04322045 -.00005273  00000+0 -13013-1 0  9990
2 49285  87.9185 318.5409 0002396  98.4912 261.6493 13.20749383201342
ONEWEB-0360             
1 49286U 21090H   25312.03372397  .00000199  00000+0  45755-3 0  9995
2 49286  87.9184 318.5514 0001907  87.7277 272.4074 13.20770076200652
ONEWEB-0361             
1 49287U 21090J   25312.09053461  .00000018  00000+0  11977-4 0  9990
2 49287  87.9186 318.5354 0001705  94.1060 266.0268 13.20769855201114
ONEWEB-0362             
1 49288U 21090K   25312.09546209  .00000107  00000+0  23585-3 0  9994
2 49288  87.9221 348.9793 0002123  95.5308 264.6067 13.19727094197756
ONEWEB-0363             
1 49289U 21090L   25312.03055007  .00000085  00000+0  17749-3 0  9990
2 49289  87.9188 318.5441 0001513  94.9071 265.2235 13.20772345201115
ONEWEB-0364             
1 49290U 21090M   25312.06845064 -.00000029  00000+0 -10275-3 0  9992
2 49290  87.9179 318.5621 0001692  93.2777 266.8550 13.20773115202259
ONEWEB-0365             
1 49291U 21090N   25312.10493948  .00000046  00000+0  83163-4 0  9992
2 49291  87.9238 348.9379 0001959  97.6493 262.4862 13.19726751197266
ONEWEB-0366             
1 49292U 21090P   25312.08536588 -.00000079  00000+0 -24796-3 0  9992
2 49292  87.8995 333.7709 0001789  93.4564 266.6770 13.14504237198510
ONEWEB-0367             
1 49293U 21090Q   25312.02898860 -.00000011  00000+0 -58125-4 0  9991
2 49293  87.9194 318.5424 0002083  91.1116 269.0256 13.20773321200636
ONEWEB-0368             
1 49294U 21090R   25312.07791596  .00000050  00000+0  90574-4 0  9990
2 49294  87.9180 318.5658 0001810 115.9652 244.1667 13.20772457201795
ONEWEB-0369             
1 49295U 21090S   25312.10020285  .00000060  00000+0  11690-3 0  9997
2 49295  87.9226 348.9678 0002162 102.1724 257.9651 13.19726652197259
ONEWEB-0370             
1 49296U 21090T   25312.03845969  .00000089  00000+0  18579-3 0  9998
2 49296  87.9186 318.5474 0002031  82.3744 277.7620 13.20773001200677
ONEWEB-0371             
1 49297U 21090U   25312.18392024  .00000026  00000+0  32051-4 0  9997
2 49297  87.9230 348.9396 0001981  95.8952 264.2406 13.19726599197307
ONEWEB-0372             
1 49298U 21090V   25312.10303578 -.00000002  00000+0 -36618-4 0  9995
2 49298  87.9182 318.5359 0001938  93.9713 266.1642 13.20771811200657
ONEWEB-0373             
1 49299U 21090W   25312.05424544  .00000065  00000+0  12707-3 0  9996
2 49299  87.9181 318.5589 0001771  89.0298 271.1038 13.20771196201833
ONEWEB-0374             
1 49300U 21090X   25312.07268469  .00000111  00000+0  26473-3 0  9990
2 49300  87.9001 333.7494 0001422 107.4248 252.7037 13.14501962198513
